{
  "norad_id": 65360,
  "name": "STARLINK-34826",
  "history": [
    {
      "epoch": "2026-03-28T16:47:40.869312Z",
      "apogee_km": 476.44549107636976,
      "perigee_km": 473.9637590071088,
      "latitude_deg": 4.167430381959853e-05,
      "longitude_deg": 1.9880731561992206,
      "height_km": 476.20953899941895,
      "semi_major_axis_km": 6853.341625041739,
      "eccentricity": 0.00018106,
      "inclination_deg": 53.1623,
      "raan_deg": 80.0248,
      "arg_perigee_deg": 94.963,
      "mean_anomaly_deg": 265.1578,
      "mean_motion_rev_day": 15.30203498
    },
    {
      "epoch": "2026-03-29T05:20:06.043488Z",
      "apogee_km": 476.01208271182804,
      "perigee_km": 474.2672384740408,
      "latitude_deg": 6.751732369429471e-05,
      "longitude_deg": 170.94238711109963,
      "height_km": 476.1989067635516,
      "semi_major_axis_km": 6853.276660592935,
      "eccentricity": 0.0001273,
      "inclination_deg": 53.1614,
      "raan_deg": 77.599,
      "arg_perigee_deg": 100.6344,
      "mean_anomaly_deg": 259.4801,
      "mean_motion_rev_day": 15.30225256
    },
    {
      "epoch": "2026-03-30T04:50:54.067488Z",
      "apogee_km": 476.06575614556823,
      "perigee_km": 474.2331873430239,
      "latitude_deg": -1.1495567202503569e-05,
      "longitude_deg": 172.72767031376637,
      "height_km": 476.223170830217,
      "semi_major_axis_km": 6853.286471744296,
      "eccentricity": 0.0001337,
      "inclination_deg": 53.16,
      "raan_deg": 73.0501,
      "arg_perigee_deg": 101.0535,
      "mean_anomaly_deg": 259.0616,
      "mean_motion_rev_day": 15.3022197
    }
  ]
}